# From MPC106342
C/1995 O1 (Hale-Bopp),e,89.0397,283.2552,130.5158,178.7135,0.0004125,0.99495077,0.0000,03/29.7425/1997,2000,g -2.0,4.0
# From NK 1615
P/1996 R2 (Lagerkvist),e,2.6004,40.0258,333.3169,3.775013,0.1343774,0.31414151,104.4458,03/30.0/2021,2000,g 11.5,4.0
# From MPC 30063
P/1997 B1 (Kobayashi),e,12.3395,328.8823,183.3460,8.571898,0.0392725,0.76017400,345.7136,03/30.0/2021,2000,g 15.0,2.0
# From MPC 75703
P/1998 VS24 (LINEAR),e,5.0258,159.0334,244.6426,4.528799,0.1022656,0.24215423,119.3379,03/30.0/2021,2000,g 13.0,2.0
# From NK 731
P/1999 RO28 (LONEOS),e,7.5671,137.8850,231.2650,3.426728,0.1553762,0.67215924,99.8782,03/30.0/2021,2000,g 20.0,2.0
# From MPC 75704
P/1999 XN120 (Catalina),e,5.0297,285.2962,161.8604,4.179021,0.1153698,0.21026015,160.2349,03/30.0/2021,2000,g 13.5,2.0
# From NK 744
P/2000 R2 (LINEAR),e,11.6855,160.2899,176.5300,3.466432,0.1527144,0.53159863,99.4973,03/30.0/2021,2000,g 18.0,4.0
# From MPC 43019
P/2001 H5 (NEAT),e,8.3669,328.6834,224.8589,6.097978,0.0654524,0.59851319,130.2032,03/30.0/2021,2000,g 12.0,4.0
# From MPC 75704
P/2001 Q6 (NEAT),e,56.9063,22.1461,42.9356,7.952419,0.0439496,0.82290174,313.1534,03/30.0/2021,2000,g 13.5,4.0
# From MPC 47727
P/2002 EJ57 (LINEAR),e,4.9762,330.3264,167.3652,6.471723,0.0598652,0.59255100,60.8110,03/30.0/2021,2000,g 12.5,4.0
# From MPC109588
P/2002 T6 (NEAT-LINEAR),e,10.8349,206.3443,219.6431,7.677927,0.0463274,0.56041319,303.9049,03/30.0/2021,2000,g 10.5,4.0
# From MPC 75007
C/2002 VQ94 (LINEAR),e,70.5914,35.0369,100.1431,185.4065,0.0003904,0.96315079,2.1631,03/30.0/2021,2000,g  9.5,2.0
# From MPC 50354
P/2003 F2 (NEAT),e,11.6049,359.0511,192.0172,6.495554,0.0595360,0.54232782,29.9744,03/30.0/2021,2000,g 16.5,2.0
# From MPC 50139
P/2003 QX29 (NEAT),e,11.3899,264.5773,37.4560,8.029618,0.0433173,0.47300209,291.1621,03/30.0/2021,2000,g  8.5,4.0
# From MPC105235
P/2003 T12 (SOHO),e,11.0183,174.5747,219.7618,2.586052,0.2370000,0.76970185,77.5281,03/30.0/2021,2000,g 17.0,4.0
# From MPC 82312
P/2004 A1 (LONEOS),e,10.5516,124.8467,21.3502,7.958794,0.0438968,0.30931723,266.7598,03/30.0/2021,2000,g  6.5,4.0
# From MPC 54558
P/2004 DO29 (Spacewatch-LINEAR),e,14.5321,147.3747,40.6946,7.284312,0.0501327,0.44120882,301.7131,03/30.0/2021,2000,g 13.5,2.0
# From MPC 54823
P/2004 FY140 (LINEAR),e,2.1348,326.7610,242.4282,4.902648,0.0907942,0.16839250,188.4949,03/30.0/2021,2000,g 12.5,2.0
# From MPC 53304
P/2004 R3 (LINEAR-NEAT),e,12.8173,305.4790,38.2202,4.797418,0.0937978,0.26087940,343.2315,03/30.0/2021,2000,g 14.5,4.0
# From MPC 55521
P/2004 V3 (Siding Spring),e,50.4378,356.1207,322.3310,7.142093,0.0516376,0.44634401,310.0626,03/30.0/2021,2000,g 11.5,4.0
# From MPC 75705
P/2004 V5 (LINEAR-Hill),e,19.3431,47.7788,87.7353,7.978170,0.0437370,0.44355341,257.9632,03/30.0/2021,2000,g  8.0,4.0
# From MPC 54164
P/2005 E1 (Tubbiolo),e,4.2637,335.5687,194.0850,7.039232,0.0527735,0.37514038,311.7779,03/30.0/2021,2000,g 10.0,4.0
# From MPC 54823
P/2005 GF8 (LONEOS),e,1.1922,314.8146,284.8796,5.845477,0.0697387,0.51772049,38.2339,03/30.0/2021,2000,g 11.5,4.0
# From MPC 79019
P/2005 J1 (McNaught),e,31.7636,268.8082,338.9618,3.570199,0.1461051,0.56972373,131.4075,03/30.0/2021,2000,g 16.5,4.0
# From MPC 74246
P/2005 L1 (McNaught),e,7.7385,138.2481,149.7177,3.975355,0.1243484,0.20944613,332.9289,03/30.0/2021,2000,g  9.5,4.0
# From MPC 75706
P/2005 S2 (Skiff),e,3.1357,161.2048,229.1537,8.015879,0.0434287,0.19721462,236.2370,03/30.0/2021,2000,g  7.5,4.0
# From MPC 75706
P/2005 SB216 (LONEOS),e,24.0803,1.2089,83.3735,7.129872,0.0517704,0.46355089,269.0898,03/30.0/2021,2000,g 12.0,2.0
# From MPC 55717
P/2005 T2 (Christensen),e,8.2924,260.1587,58.8248,3.846289,0.1306596,0.41639047,46.4631,03/30.0/2021,2000,g 14.5,4.0
# From MPC 73461
P/2005 T3 (Read),e,6.2241,27.7252,6.8887,7.580699,0.0472215,0.17423513,266.9998,03/30.0/2021,2000,g  9.0,4.0
# From MPC 73461
P/2005 T4 (SWAN),e,160.2007,25.7233,41.6276,9.361211,0.0344117,0.92981628,194.7897,03/30.0/2021,2000,g 15.0,4.0
# From MPC 75706
P/2005 T5 (Broughton),e,21.3576,57.0038,304.5494,7.290333,0.0500706,0.55220188,283.0210,03/30.0/2021,2000,g 11.0,4.0
# From MPC 56954
P/2005 W3 (Kowalski),e,16.4198,210.0858,200.7149,6.329529,0.0618938,0.54339103,349.1783,03/30.0/2021,2000,g 12.0,4.0
# From MPC 75706
P/2005 Y2 (McNaught),e,19.0726,94.4668,193.9563,6.387171,0.0610578,0.47080476,9.8205,03/30.0/2021,2000,g  9.0,4.0
# From MPC 56954
P/2006 F4 (Spacewatch),e,12.4149,183.8431,31.0495,3.524012,0.1489869,0.33977091,90.2119,03/30.0/2021,2000,g 15.0,4.0
# From MPC 75707
P/2006 HR30 (Siding Spring),e,31.8296,309.9031,117.2886,7.811256,0.0451464,0.84219034,235.7075,03/30.0/2021,2000,g 11.0,4.0
# From MPC 75707
P/2006 S4 (Christensen),e,39.5325,36.0867,305.1455,6.314368,0.0621168,0.50823314,341.9475,03/30.0/2021,2000,g 11.0,4.0
# From MPC 75707
P/2007 A2 (Christensen),e,26.4877,300.9069,186.7412,6.326854,0.0619330,0.55767950,322.2646,03/30.0/2021,2000,g 13.5,4.0
# From MPC 75707
P/2007 C2 (Catalina),e,8.6446,275.5595,179.9860,6.992593,0.0533024,0.47057143,262.8380,03/30.0/2021,2000,g 10.0,4.0
# From MPC 84315
C/2007 D1 (LINEAR),e,41.5017,171.1981,340.0505,1459,0.0000177,0.99395177,0.0000,06/08.8882/2007,2000,g  3.5,4.0
# From MPC 82314
P/2007 K2 (Gibbs),e,7.6337,188.6441,347.4508,7.264495,0.0503380,0.68317637,254.1642,03/30.0/2021,2000,g 14.0,4.0
# From MPC 60925
P/2007 Q2 (Gilmore),e,10.2027,172.1601,162.7752,5.652830,0.0733340,0.67013526,9.0224,03/30.0/2021,2000,g 16.0,4.0
# From MPC 75708
P/2007 R4 (Garradd),e,20.2182,87.2191,282.6111,5.932792,0.0682049,0.67015864,342.6915,03/30.0/2021,2000,g 14.5,4.0
# From MPC 73462
P/2007 S1 (Zhao),e,5.9636,141.3739,245.6627,3.814787,0.1322814,0.33958127,286.2730,03/30.0/2021,2000,g 13.0,4.0
# From MPC 61994
P/2007 T2 (Kowalski),e,9.7474,3.3745,359.6374,3.047007,0.1853078,0.78534427,181.6277,03/30.0/2021,2000,g 18.5,4.0
# From MPC 75708
P/2008 CL94 (Lemmon),e,8.3468,33.3246,80.4572,6.162027,0.0644345,0.12039247,348.7265,03/30.0/2021,2000,g  8.0,4.0
# From MPC 75709
P/2008 L2 (Hill),e,25.8603,218.0073,141.2192,6.028542,0.0665864,0.61314347,308.5852,03/30.0/2021,2000,g 12.5,4.0
# From MPC 64114
P/2008 O3 (Boattini),e,32.2639,47.5907,341.0949,8.221929,0.0418065,0.69532971,196.2100,03/30.0/2021,2000,g 13.0,4.0
# From MPC 75709
P/2008 QP20 (LINEAR-Hill),e,7.5227,322.0725,75.5558,3.553919,0.1471102,0.49197239,319.0844,03/30.0/2021,2000,g 15.5,4.0
# From MPC 66204
P/2008 WZ96 (LINEAR),e,7.1113,56.4533,341.9116,3.488398,0.1512743,0.47002156,337.3467,03/30.0/2021,2000,g 13.5,4.0
# From MPC 75710
P/2008 Y3 (McNaught),e,38.7653,262.7979,238.2294,8.046585,0.0431804,0.44546684,193.4205,03/30.0/2021,2000,g  8.5,4.0
# From MPC 75710
P/2009 B1 (Boattini),e,22.2197,297.0907,128.8828,6.736620,0.0563691,0.63477292,251.7280,03/30.0/2021,2000,g 13.0,4.0
# From MPC 66466
C/2009 G1 (STEREO),e,108.7401,120.4368,175.4109,433.6780,0.0001091,0.99738026,0.0000,04/15.6378/2009,2000,g  9.0,4.0
# From MPC 75710
P/2009 O3 (Hill),e,16.2707,183.7068,154.4087,7.769691,0.0455091,0.68769515,197.0641,03/30.0/2021,2000,g 12.5,4.0
# From MPEC 2021-F20
P/2009 Q1 (Hill),e,14.5029,173.9606,157.1453,5.519827,0.0760004,0.49481376,328.1644,03/30.0/2021,2000,g 11.5,4.0
# From MPC 68902
P/2009 Q5 (McNaught),e,40.9810,160.2708,209.0239,7.436726,0.0485995,0.60892854,205.3276,03/30.0/2021,2000,g 10.0,4.0
# From MPC112389
P/2009 T2 (La Sagra),e,27.5576,215.8101,216.3972,7.723648,0.0459167,0.76526056,188.7554,03/30.0/2021,2000,g 14.0,4.0
# From MPC 75711
P/2009 U4 (McNaught),e,10.0806,55.3505,259.8369,5.082979,0.0860056,0.67606570,4.8945,03/30.0/2021,2000,g 14.0,4.0
# From MPC105235
P/2009 WX51 (Catalina),e,9.5953,31.6817,118.0781,3.080607,0.1822844,0.74029025,24.3600,03/30.0/2021,2000,g 19.0,2.0
# From MPC 74247
P/2009 Y2 (Kowalski),e,29.9319,262.0249,172.1545,6.549663,0.0587998,0.63596644,237.9538,03/30.0/2021,2000,g 13.0,4.0
# From MPC 75711
P/2010 A3 (Hill),e,14.8477,63.9590,42.0483,6.077064,0.0657905,0.73340931,264.9883,03/30.0/2021,2000,g 14.0,4.0
# From MPC 75008
P/2010 C1 (Scotti),e,9.1280,141.8859,3.7129,7.103365,0.0520604,0.25870719,216.2700,03/30.0/2021,2000,g  9.5,4.0
# From MPC 75008
P/2010 D2 (WISE),e,57.0849,319.8917,120.0600,6.716482,0.0566228,0.45094105,229.9867,03/30.0/2021,2000,g 16.0,4.0
# From MPC 75009
P/2010 E2 (Jarnac),e,15.3992,177.8241,8.3654,8.638733,0.0388176,0.72000686,155.8524,03/30.0/2021,2000,g 14.0,4.0
# From MPC 72851
P/2010 H2 (Vales),e,14.2736,64.2008,128.1459,3.833891,0.1312938,0.19577738,170.4452,03/30.0/2021,2000,g  6.0,4.0
# From MPC 70361
P/2010 H3 (SOHO),e,23.0869,77.1007,26.1387,3.037865,0.1861450,0.98538431,0.0000,02/07.9649/2021,2000,g 20.0,2.0
# From MPC 73463
P/2010 H4 (Scotti),e,2.3186,44.7428,179.5453,6.591093,0.0582462,0.26727718,229.3204,03/30.0/2021,2000,g 10.5,4.0
# From MPC 74637
P/2010 H5 (Scotti),e,14.0645,24.8066,175.2235,7.160909,0.0514342,0.15335458,206.2672,03/30.0/2021,2000,g 13.0,2.0
# From MPC 98558
P/2010 J3 (McMillan),e,13.2874,106.4145,157.5944,8.971986,0.0366751,0.72702647,141.7546,03/30.0/2021,2000,g 11.0,4.0
# From MPC 84315
P/2010 JC81 (WISE),e,38.7402,30.8465,12.4340,8.110101,0.0426741,0.77690725,155.0077,03/30.0/2021,2000,g  9.0,4.0
# From MPC 74248
P/2010 T2 (PANSTARRS),e,7.9029,58.9390,353.4865,5.523875,0.0759169,0.32149437,277.2605,03/30.0/2021,2000,g 11.5,4.0
# From MPC 98558
P/2010 TO20 (LINEAR-Grauer),e,2.4790,43.2949,266.7871,5.830157,0.0700138,0.05485879,318.0140,03/30.0/2021,2000,g  9.0,4.0
# From MPC 82316
P/2010 U1 (Boattini),e,8.2147,280.7115,85.9381,6.510470,0.0593315,0.24828395,242.2291,03/30.0/2021,2000,g  9.5,4.0
# From MPEC 2021-FB5
C/2010 U3 (Boattini),e,55.5257,43.0254,88.0651,2312,0.0000089,0.99634722,0.0000,02/25.6988/2019,2000,g  1.0,4.0
# From MPC 79021
P/2010 UH55 (Spacewatch),e,8.0429,232.9620,225.1790,6.652121,0.0574465,0.56339933,209.1163,03/30.0/2021,2000,g 11.0,4.0
# From MPC 75009
P/2010 WK (LINEAR),e,11.4008,11.3205,40.9767,5.761000,0.0712783,0.68989185,273.7391,03/30.0/2021,2000,g 14.5,2.0
# From MPC 82317
